[
    {
        "links": {
            "self": "http://www.neowsapp.com/rest/v1/neo/3092157?api_key=XtxSQJSJhVeS5Iyb7orqAd2n9lnwHAJFFe9uOM3p"
        },
        "id": "3092157",
        "neo_reference_id": "3092157",
        "name": "(1997 EN23)",
        "designation": "1997 EN23",
        "nasa_jpl_url": "http://ssd.jpl.nasa.gov/sbdb.cgi?sstr=3092157",
        "absolute_magnitude_h": 22.8,
        "estimated_diameter": {
            "kilometers": {
                "estimated_diameter_min": 0.0732073989,
                "estimated_diameter_max": 0.1636967205
            },
            "meters": {
                "estimated_diameter_min": 73.2073989347,
                "estimated_diameter_max": 163.696720474
            },
            "miles": {
                "estimated_diameter_min": 0.0454889547,
                "estimated_diameter_max": 0.1017163949
            },
            "feet": {
                "estimated_diameter_min": 240.181762721,
                "estimated_diameter_max": 537.0627483999
            }
        },
        "is_potentially_hazardous_asteroid": false,
        "close_approach_data": [
            {
                "close_approach_date": "1997-03-17",
                "close_approach_date_full": "1997-Mar-17 01:32",
                "epoch_date_close_approach": 858562320000,
                "relative_velocity": {
                    "kilometers_per_second": "6.6267328126",
                    "kilometers_per_hour": "23856.2381254661",
                    "miles_per_hour": "14823.3386285708"
                },
                "miss_distance": {
                    "astronomical": "0.1936694866",
                    "lunar": "75.3374302874",
                    "kilometers": "28972542.679353542",
                    "miles": "18002703.2245091996"
                },
                "orbiting_body": "Earth"
            }
        ],
        "orbital_data": {
            "orbit_id": "12",
            "orbit_determination_date": "2017-04-06 09:18:01",
            "first_observation_date": "1997-03-08",
            "last_observation_date": "1997-03-29",
            "data_arc_in_days": 21,
            "observations_used": 17,
            "orbit_uncertainty": "8",
            "minimum_orbit_intersection": ".187291",
            "jupiter_tisserand_invariant": "2.813",
            "epoch_osculation": "2450519.5",
            "eccentricity": ".6361058224019879",
            "semi_major_axis": "3.245387999245263",
            "inclination": "6.954335239778239",
            "ascending_node_longitude": "178.7432126010625",
            "orbital_period": "2135.494050021091",
            "perihelion_distance": "1.180977796971813",
            "perihelion_argument": "352.8859987577055",
            "aphelion_distance": "5.309798201518714",
            "perihelion_time": "2450522.380053416901",
            "mean_anomaly": "359.5144827352368",
            "mean_motion": ".1685792568686597",
            "equinox": "J2000",
            "orbit_class": {
                "orbit_class_type": "AMO",
                "orbit_class_description": "Near-Earth asteroid orbits similar to that of 1221 Amor",
                "orbit_class_range": "1.017 AU < q (perihelion) < 1.3 AU"
            }
        },
        "is_sentry_object": false
    },
    {
        "links": {
            "self": "http://www.neowsapp.com/rest/v1/neo/3010396?api_key=XtxSQJSJhVeS5Iyb7orqAd2n9lnwHAJFFe9uOM3p"
        },
        "id": "3010396",
        "neo_reference_id": "3010396",
        "name": "(1997 TZ16)",
        "designation": "1997 TZ16",
        "nasa_jpl_url": "http://ssd.jpl.nasa.gov/sbdb.cgi?sstr=3010396",
        "absolute_magnitude_h": 24.5,
        "estimated_diameter": {
            "kilometers": {
                "estimated_diameter_min": 0.0334622374,
                "estimated_diameter_max": 0.0748238376
            },
            "meters": {
                "estimated_diameter_min": 33.4622374455,
                "estimated_diameter_max": 74.8238376074
            },
            "miles": {
                "estimated_diameter_min": 0.0207924639,
                "estimated_diameter_max": 0.0464933628
            },
            "feet": {
                "estimated_diameter_min": 109.7842471007,
                "estimated_diameter_max": 245.4850393757
            }
        },
        "is_potentially_hazardous_asteroid": false,
        "close_approach_data": [
            {
                "close_approach_date": "1997-10-16",
                "close_approach_date_full": "1997-Oct-16 02:15",
                "epoch_date_close_approach": 876968100000,
                "relative_velocity": {
                    "kilometers_per_second": "13.3049000848",
                    "kilometers_per_hour": "47897.6403054182",
                    "miles_per_hour": "29761.730999775"
                },
                "miss_distance": {
                    "astronomical": "0.0182439361",
                    "lunar": "7.0968911429",
                    "kilometers": "2729253.980976107",
                    "miles": "1695879.7847879966"
                },
                "orbiting_body": "Earth"
            },
            {
                "close_approach_date": "2052-03-07",
                "close_approach_date_full": "2052-Mar-07 02:24",
                "epoch_date_close_approach": 2593391040000,
                "relative_velocity": {
                    "kilometers_per_second": "26.1035504055",
                    "kilometers_per_hour": "93972.7814597456",
                    "miles_per_hour": "58391.0319020292"
                },
                "miss_distance": {
                    "astronomical": "0.4101405839",
                    "lunar": "159.5446871371",
                    "kilometers": "61356157.751996293",
                    "miles": "38124948.5497351234"
                },
                "orbiting_body": "Earth"
            }
        ],
        "orbital_data": {
            "orbit_id": "12",
            "orbit_determination_date": "2017-04-06 09:17:58",
            "first_observation_date": "1997-10-09",
            "last_observation_date": "1997-10-12",
            "data_arc_in_days": 3,
            "observations_used": 29,
            "orbit_uncertainty": "8",
            "minimum_orbit_intersection": ".00805568",
            "jupiter_tisserand_invariant": "3.588",
            "epoch_osculation": "2450731.5",
            "eccentricity": ".595231278210401",
            "semi_major_axis": "2.007659669279551",
            "inclination": "3.796608719147418",
            "ascending_node_longitude": "14.1820532211867",
            "orbital_period": "1039.043115262269",
            "perihelion_distance": ".8126378381228128",
            "perihelion_argument": "66.85571520199653",
            "aphelion_distance": "3.202681500436289",
            "perihelion_time": "2450777.631631737087",
            "mean_anomaly": "344.0166522626355",
            "mean_motion": ".3464726292028132",
            "equinox": "J2000",
            "orbit_class": {
                "orbit_class_type": "APO",
                "orbit_class_description": "Near-Earth asteroid orbits which cross the Earth’s orbit similar to that of 1862 Apollo",
                "orbit_class_range": "a (semi-major axis) > 1.0 AU; q (perihelion) < 1.017 AU"
            }
        },
        "is_sentry_object": false
    }
]